start=new Date('2022-08-18T00:00:00.000Z').valueOf();
sats=[{"OBJECT_TYPE":"PAYLOAD","APOAPSIS":"548.147","TIME_SYSTEM":"UTC","SITE":"AFETR","COUNTRY_CODE":"US","CENTER_NAME":"EARTH","EPHEMERIS_TYPE":"0","ELEMENT_SET_NO":"999","CLASSIFICATION_TYPE":"U","TLE_LINE2":"2 47826  53.0557 328.5340 0001350  70.5845 289.5290 15.06400530 80622","EPOCH":"2022-08-17T11:18:11.612736","LAUNCH_DATE":"2021-03-11","MEAN_MOTION_DDOT":"0.0000000000000","MEAN_MOTION":"15.06400530","SEMIMAJOR_AXIS":"6925.347","FILE":"3538809","REV_AT_EPOCH":"8062","MEAN_ANOMALY":"289.5290","TLE_LINE1":"1 47826U 21018AR  22229.47096774  .00001593  00000-0  12580-3 0  9997","PERIAPSIS":"546.277","ARG_OF_PERICENTER":"70.5845","PERIOD":"95.592","DECAY_DATE":null,"MEAN_ELEMENT_THEORY":"SGP4","RCS_SIZE":"LARGE","RA_OF_ASC_NODE":"328.5340","OBJECT_ID":"2021-018AR","MEAN_MOTION_DOT":"0.00001593","GP_ID":"210406022","INCLINATION":"53.0557","ECCENTRICITY":"0.00013500","NORAD_CAT_ID":"47826","REF_FRAME":"TEME","OBJECT_NAME":"STARLINK-2411","BSTAR":"0.00012580000000"},{"TIME_SYSTEM":"UTC","APOAPSIS":"548.085","OBJECT_TYPE":"PAYLOAD","COUNTRY_CODE":"US","SITE":"AFETR","CENTER_NAME":"EARTH","EPHEMERIS_TYPE":"0","TLE_LINE2":"2 47827  53.0539 318.8417 0001276 100.0873 260.0260 15.06403900 80813","EPOCH":"2022-08-17T10:53:01.499712","ELEMENT_SET_NO":"999","CLASSIFICATION_TYPE":"U","LAUNCH_DATE":"2021-03-11","MEAN_MOTION_DDOT":"0.0000000000000","MEAN_MOTION":"15.06403900","SEMIMAJOR_AXIS":"6925.337","FILE":"3538809","REV_AT_EPOCH":"8081","TLE_LINE1":"1 47827U 21018AS  22229.45348958  .00000961  00000-0  83400-4 0  9998","PERIAPSIS":"546.318","ARG_OF_PERICENTER":"100.0873","PERIOD":"95.592","MEAN_ANOMALY":"260.0260","DECAY_DATE":null,"RA_OF_ASC_NODE":"318.8417","MEAN_ELEMENT_THEORY":"SGP4","RCS_SIZE":"LARGE","GP_ID":"210405773","INCLINATION":"53.0539","MEAN_MOTION_DOT":"0.00000961","OBJECT_ID":"2021-018AS","ECCENTRICITY":"0.00012760","REF_FRAME":"TEME","NORAD_CAT_ID":"47827","OBJECT_NAME":"STARLINK-2413","BSTAR":"0.00008340000000"},{"DECAY_DATE":null,"RA_OF_ASC_NODE":"338.3058","MEAN_ELEMENT_THEORY":"SGP4","RCS_SIZE":"LARGE","FILE":"3538809","REV_AT_EPOCH":"8049","TLE_LINE1":"1 47828U 21018AT  22229.52165179  .00000236  00000-0  34717-4 0  9991","ARG_OF_PERICENTER":"75.8017","PERIAPSIS":"546.288","PERIOD":"95.592","MEAN_ANOMALY":"284.3123","REF_FRAME":"TEME","NORAD_CAT_ID":"47828","OBJECT_NAME":"STARLINK-2415","BSTAR":"0.00003471700000","GP_ID":"210404521","INCLINATION":"53.0559","OBJECT_ID":"2021-018AT","MEAN_MOTION_DOT":"0.00000236","ECCENTRICITY":"0.00013570","CENTER_NAME":"EARTH","EPHEMERIS_TYPE":"0","TLE_LINE2":"2 47828  53.0559 338.3058 0001357  75.8017 284.3123 15.06395514 80495","EPOCH":"2022-08-17T12:31:10.714656","CLASSIFICATION_TYPE":"U","ELEMENT_SET_NO":"999","TIME_SYSTEM":"UTC","APOAPSIS":"548.167","OBJECT_TYPE":"PAYLOAD","COUNTRY_CODE":"US","SITE":"AFETR","MEAN_MOTION":"15.06395514","SEMIMAJOR_AXIS":"6925.362","LAUNCH_DATE":"2021-03-11","MEAN_MOTION_DDOT":"0.0000000000000"},{"SEMIMAJOR_AXIS":"6925.379","MEAN_MOTION":"15.06390046","MEAN_MOTION_DDOT":"0.0000000000000","LAUNCH_DATE":"2021-03-11","ELEMENT_SET_NO":"999","CLASSIFICATION_TYPE":"U","EPOCH":"2022-08-17T11:22:10.817184","TLE_LINE2":"2 47829  53.0555 338.5179 0001294  90.7869 269.3268 15.06390046 80475","CENTER_NAME":"EARTH","EPHEMERIS_TYPE":"0","SITE":"AFETR","COUNTRY_CODE":"US","OBJECT_TYPE":"PAYLOAD","TIME_SYSTEM":"UTC","APOAPSIS":"548.140","OBJECT_NAME":"STARLINK-2416","BSTAR":"0.00017234000000","NORAD_CAT_ID":"47829","REF_FRAME":"TEME","ECCENTRICITY":"0.00012940","MEAN_MOTION_DOT":"0.00002286","OBJECT_ID":"2021-018AU","INCLINATION":"53.0555","GP_ID":"210404771","MEAN_ELEMENT_THEORY":"SGP4","RCS_SIZE":"LARGE","RA_OF_ASC_NODE":"338.5179","DECAY_DATE":null,"MEAN_ANOMALY":"269.3268","TLE_LINE1":"1 47829U 21018AU  22229.47373631  .00002286  00000-0  17234-3 0  9991","ARG_OF_PERICENTER":"90.7869","PERIAPSIS":"546.348","PERIOD":"95.593","FILE":"3538809","REV_AT_EPOCH":"8047"},{"REF_FRAME":"TEME","NORAD_CAT_ID":"47830","OBJECT_NAME":"STARLINK-2419","BSTAR":"0.00012037000000","GP_ID":"210405523","INCLINATION":"53.0544","MEAN_MOTION_DOT":"0.00001512","OBJECT_ID":"2021-018AV","ECCENTRICITY":"0.00012870","DECAY_DATE":null,"RA_OF_ASC_NODE":"338.5461","MEAN_ELEMENT_THEORY":"SGP4","RCS_SIZE":"LARGE","FILE":"3538809","REV_AT_EPOCH":"8047","TLE_LINE1":"1 47830U 21018AV  22229.47003787  .00001512  00000-0  12037-3 0  9992","PERIOD":"95.592","PERIAPSIS":"546.339","ARG_OF_PERICENTER":"71.2411","MEAN_ANOMALY":"288.8717","MEAN_MOTION":"15.06394655","SEMIMAJOR_AXIS":"6925.365","LAUNCH_DATE":"2021-03-11","MEAN_MOTION_DDOT":"0.0000000000000","CENTER_NAME":"EARTH","EPHEMERIS_TYPE":"0","EPOCH":"2022-08-17T11:16:51.271968","TLE_LINE2":"2 47830  53.0544 338.5461 0001287  71.2411 288.8717 15.06394655 80473","CLASSIFICATION_TYPE":"U","ELEMENT_SET_NO":"999","TIME_SYSTEM":"UTC","APOAPSIS":"548.121","OBJECT_TYPE":"PAYLOAD","COUNTRY_CODE":"US","SITE":"AFETR"},{"MEAN_MOTION":"15.06404842","SEMIMAJOR_AXIS":"6925.334","LAUNCH_DATE":"2021-03-11","MEAN_MOTION_DDOT":"0.0000000000000","EPHEMERIS_TYPE":"0","CENTER_NAME":"EARTH","CLASSIFICATION_TYPE":"U","ELEMENT_SET_NO":"999","TLE_LINE2":"2 47831  53.0538 313.2469 0001322  85.6914 274.4226 15.06404842 80894","EPOCH":"2022-08-17T12:53:04.046496","OBJECT_TYPE":"PAYLOAD","APOAPSIS":"548.114","TIME_SYSTEM":"UTC","SITE":"AFETR","COUNTRY_CODE":"US","NORAD_CAT_ID":"47831","REF_FRAME":"TEME","BSTAR":"0.00010357000000","OBJECT_NAME":"STARLINK-2420","MEAN_MOTION_DOT":"0.00001262","OBJECT_ID":"2021-018AW","GP_ID":"210406273","INCLINATION":"53.0538","ECCENTRICITY":"0.00013220","DECAY_DATE":null,"RCS_SIZE":"LARGE","MEAN_ELEMENT_THEORY":"SGP4","RA_OF_ASC_NODE":"313.2469","REV_AT_EPOCH":"8089","FILE":"3538809","MEAN_ANOMALY":"274.4226","PERIOD":"95.592","PERIAPSIS":"546.283","ARG_OF_PERICENTER":"85.6914","TLE_LINE1":"1 47831U 21018AW  22229.53685239  .00001262  00000-0  10357-3 0  9993"},{"CLASSIFICATION_TYPE":"U","ELEMENT_SET_NO":"999","TLE_LINE2":"2 47832  53.0559 328.4338 0001225  93.6040 266.5089 15.06391698 80626","EPOCH":"2022-08-17T11:50:02.522400","CENTER_NAME":"EARTH","EPHEMERIS_TYPE":"0","SITE":"AFETR","COUNTRY_CODE":"US","OBJECT_TYPE":"PAYLOAD","TIME_SYSTEM":"UTC","APOAPSIS":"548.087","SEMIMAJOR_AXIS":"6925.374","MEAN_MOTION":"15.06391698","MEAN_MOTION_DDOT":"0.0000000000000","LAUNCH_DATE":"2021-03-11","RCS_SIZE":"LARGE","MEAN_ELEMENT_THEORY":"SGP4","RA_OF_ASC_NODE":"328.4338","DECAY_DATE":null,"MEAN_ANOMALY":"266.5089","ARG_OF_PERICENTER":"93.6040","PERIAPSIS":"546.391","PERIOD":"95.593","TLE_LINE1":"1 47832U 21018AX  22229.49308475  .00004359  00000-0  31138-3 0  9993","REV_AT_EPOCH":"8062","FILE":"3538809","BSTAR":"0.00031138000000","OBJECT_NAME":"STARLINK-2422","NORAD_CAT_ID":"47832","REF_FRAME":"TEME","ECCENTRICITY":"0.00012250","OBJECT_ID":"2021-018AX","MEAN_MOTION_DOT":"0.00004359","GP_ID":"210405021","INCLINATION":"53.0559"},{"SITE":"AFETR","COUNTRY_CODE":"US","OBJECT_TYPE":"PAYLOAD","TIME_SYSTEM":"UTC","APOAPSIS":"548.114","ELEMENT_SET_NO":"999","CLASSIFICATION_TYPE":"U","EPOCH":"2022-08-17T10:51:39.604608","TLE_LINE2":"2 47833  53.0546 328.6156 0001271  71.5756 288.5371 15.06393314 80673","EPHEMERIS_TYPE":"0","CENTER_NAME":"EARTH","MEAN_MOTION_DDOT":"0.0000000000000","LAUNCH_DATE":"2021-03-11","SEMIMAJOR_AXIS":"6925.369","MEAN_MOTION":"15.06393314","MEAN_ANOMALY":"288.5371","ARG_OF_PERICENTER":"71.5756","PERIAPSIS":"546.354","PERIOD":"95.593","TLE_LINE1":"1 47833U 21018AY  22229.45254172  .00001088  00000-0  91953-4 0  9992","REV_AT_EPOCH":"8067","FILE":"3538809","RCS_SIZE":"LARGE","MEAN_ELEMENT_THEORY":"SGP4","RA_OF_ASC_NODE":"328.6156","DECAY_DATE":null,"ECCENTRICITY":"0.00012710","MEAN_MOTION_DOT":"0.00001088","OBJECT_ID":"2021-018AY","INCLINATION":"53.0546","GP_ID":"210405271","BSTAR":"0.00009195300000","OBJECT_NAME":"STARLINK-2423","NORAD_CAT_ID":"47833","REF_FRAME":"TEME"},{"EPOCH":"2022-08-17T12:43:07.587552","TLE_LINE2":"2 47834  53.0559 328.2660 0001226  83.0804 277.0325 15.06395618 80688","CLASSIFICATION_TYPE":"U","ELEMENT_SET_NO":"999","CENTER_NAME":"EARTH","EPHEMERIS_TYPE":"0","COUNTRY_CODE":"US","SITE":"AFETR","APOAPSIS":"548.076","TIME_SYSTEM":"UTC","OBJECT_TYPE":"PAYLOAD","SEMIMAJOR_AXIS":"6925.362","MEAN_MOTION":"15.06395618","MEAN_MOTION_DDOT":"0.0000000000000","LAUNCH_DATE":"2021-03-11","RA_OF_ASC_NODE":"328.2660","MEAN_ELEMENT_THEORY":"SGP4","RCS_SIZE":"LARGE","DECAY_DATE":null,"TLE_LINE1":"1 47834U 21018AZ  22229.52994893  .00000540  00000-0  55167-4 0  9991","PERIAPSIS":"546.378","ARG_OF_PERICENTER":"83.0804","PERIOD":"95.592","MEAN_ANOMALY":"277.0325","FILE":"3538809","REV_AT_EPOCH":"8068","OBJECT_NAME":"STARLINK-2424","BSTAR":"0.00005516700000","REF_FRAME":"TEME","NORAD_CAT_ID":"47834","ECCENTRICITY":"0.00012260","GP_ID":"210406023","INCLINATION":"53.0559","OBJECT_ID":"2021-018AZ","MEAN_MOTION_DOT":"0.00000540"},{"OBJECT_NAME":"STARLINK-2425","BSTAR":"0.00011735000000","REF_FRAME":"TEME","NORAD_CAT_ID":"47835","ECCENTRICITY":"0.00013230","GP_ID":"210405774","INCLINATION":"53.0568","MEAN_MOTION_DOT":"0.00001467","OBJECT_ID":"2021-018BA","RA_OF_ASC_NODE":"333.5639","MEAN_ELEMENT_THEORY":"SGP4","RCS_SIZE":"LARGE","DECAY_DATE":null,"TLE_LINE1":"1 47835U 21018BA  22229.49079643  .00001467  00000-0  11735-3 0  9996","PERIAPSIS":"546.305","ARG_OF_PERICENTER":"97.5006","PERIOD":"95.592","MEAN_ANOMALY":"262.6133","FILE":"3538809","REV_AT_EPOCH":"8054","SEMIMAJOR_AXIS":"6925.356","MEAN_MOTION":"15.06397584","MEAN_MOTION_DDOT":"0.0000000000000","LAUNCH_DATE":"2021-03-11","TLE_LINE2":"2 47835  53.0568 333.5639 0001323  97.5006 262.6133 15.06397584 80542","EPOCH":"2022-08-17T11:46:44.811552","ELEMENT_SET_NO":"999","CLASSIFICATION_TYPE":"U","CENTER_NAME":"EARTH","EPHEMERIS_TYPE":"0","COUNTRY_CODE":"US","SITE":"AFETR","APOAPSIS":"548.137","TIME_SYSTEM":"UTC","OBJECT_TYPE":"PAYLOAD"}];
